[{"OBJECT_NAME":"KUIPER-00082","OBJECT_ID":"2025-151N","EPOCH":"2026-03-09T21:48:21.424320","MEAN_MOTION":14.79927202,"ECCENTRICITY":6.123e-5,"INCLINATION":51.9016,"RA_OF_ASC_NODE":287.1338,"ARG_OF_PERICENTER":95.8656,"MEAN_ANOMALY":264.2376,"EPHEMERIS_TYPE":0,"CLASSIFICATION_TYPE":"U","NORAD_CAT_ID":64828,"ELEMENT_SET_NO":999,"REV_AT_EPOCH":3551,"BSTAR":0.0006160009,"MEAN_MOTION_DOT":4.477e-5,"MEAN_MOTION_DDOT":0},{"OBJECT_NAME":"FENGYUN 1C DEB","OBJECT_ID":"1999-025CTP","EPOCH":"2026-03-08T07:49:45.092640","MEAN_MOTION":14.72930761,"ECCENTRICITY":0.00332506,"INCLINATION":98.5574,"RA_OF_ASC_NODE":265.1888,"ARG_OF_PERICENTER":215.7056,"MEAN_ANOMALY":144.1927,"EPHEMERIS_TYPE":0,"CLASSIFICATION_TYPE":"U","NORAD_CAT_ID":32169,"ELEMENT_SET_NO":999,"REV_AT_EPOCH":97876,"BSTAR":0.0084912178,"MEAN_MOTION_DOT":0.00055299,"MEAN_MOTION_DDOT":0}]
